[{"OBJECT_NAME":"STARLINK-5861","OBJECT_ID":"2023-037H","EPOCH":"2026-03-09T22:11:41.498304","MEAN_MOTION":14.98330597,"ECCENTRICITY":0.00018361,"INCLINATION":69.9989,"RA_OF_ASC_NODE":303.8136,"ARG_OF_PERICENTER":272.3299,"MEAN_ANOMALY":87.765,"EPHEMERIS_TYPE":0,"CLASSIFICATION_TYPE":"U","NORAD_CAT_ID":55921,"ELEMENT_SET_NO":999,"REV_AT_EPOCH":16352,"BSTAR":-1.3230461e-5,"MEAN_MOTION_DOT":-2.51e-6,"MEAN_MOTION_DDOT":0},{"OBJECT_NAME":"ICEYE-X39","OBJECT_ID":"2024-149CG","EPOCH":"2026-03-09T17:17:30.183072","MEAN_MOTION":14.99225125,"ECCENTRICITY":0.0005274,"INCLINATION":97.6853,"RA_OF_ASC_NODE":147.0953,"ARG_OF_PERICENTER":52.5538,"MEAN_ANOMALY":307.6164,"EPHEMERIS_TYPE":0,"CLASSIFICATION_TYPE":"U","NORAD_CAT_ID":60546,"ELEMENT_SET_NO":999,"REV_AT_EPOCH":8521,"BSTAR":0.00029320082,"MEAN_MOTION_DOT":3.515e-5,"MEAN_MOTION_DDOT":0}]
